CCSDS_OMM_VERS = 2.0
CREATION_DATE  = 
ORIGINATOR     = 

OBJECT_NAME    = STARLINK-36373
OBJECT_ID      = 2026-040AA
CENTER_NAME    = EARTH
REF_FRAME      = TEME
TIME_SYSTEM    = UTC
MEAN_ELEMENT_THEORY = SGP/SGP4

EPOCH          = 2026-03-31T04:00:00.999936
MEAN_MOTION    = 15.52871025
ECCENTRICITY   = .0002118
INCLINATION    = 97.2854
RA_OF_ASC_NODE = 39.6118
ARG_OF_PERICENTER = 110.6263
MEAN_ANOMALY   = 180.7801

EPHEMERIS_TYPE = 0
CLASSIFICATION_TYPE = U
NORAD_CAT_ID   = 68039
ELEMENT_SET_NO = 999
REV_AT_EPOCH   = 583
BSTAR          = -.33215E-1
MEAN_MOTION_DOT = -.182645E-1
MEAN_MOTION_DDOT = 0

CCSDS_OMM_VERS = 2.0
CREATION_DATE  = 
ORIGINATOR     = 

OBJECT_NAME    = STARLINK-36711
OBJECT_ID      = 2026-041A
CENTER_NAME    = EARTH
REF_FRAME      = TEME
TIME_SYSTEM    = UTC
MEAN_ELEMENT_THEORY = SGP/SGP4

EPOCH          = 2026-03-31T02:06:11.693376
MEAN_MOTION    = 15.75303969
ECCENTRICITY   = .0000914
INCLINATION    = 53.1575
RA_OF_ASC_NODE = 315.5819
ARG_OF_PERICENTER = 88.1145
MEAN_ANOMALY   = 271.9980

EPHEMERIS_TYPE = 0
CLASSIFICATION_TYPE = U
NORAD_CAT_ID   = 68040
ELEMENT_SET_NO = 999
REV_AT_EPOCH   = 459
BSTAR          = .10074E-2
MEAN_MOTION_DOT = .157134E-2
MEAN_MOTION_DDOT = 0

CCSDS_OMM_VERS = 2.0
CREATION_DATE  = 
ORIGINATOR     = 

OBJECT_NAME    = STARLINK-36825
OBJECT_ID      = 2026-041B
CENTER_NAME    = EARTH
REF_FRAME      = TEME
TIME_SYSTEM    = UTC
MEAN_ELEMENT_THEORY = SGP/SGP4

EPOCH          = 2026-03-31T04:00:00.999936
MEAN_MOTION    = 15.75188357
ECCENTRICITY   = .0000805
INCLINATION    = 53.1584
RA_OF_ASC_NODE = 314.5579
ARG_OF_PERICENTER = 106.0170
MEAN_ANOMALY   = 291.6365

EPHEMERIS_TYPE = 0
CLASSIFICATION_TYPE = U
NORAD_CAT_ID   = 68041
ELEMENT_SET_NO = 999
REV_AT_EPOCH   = 583
BSTAR          = .24161E-3
MEAN_MOTION_DOT = .36475E-3
MEAN_MOTION_DDOT = 0

CCSDS_OMM_VERS = 2.0
CREATION_DATE  = 
ORIGINATOR     = 

OBJECT_NAME    = STARLINK-36925
OBJECT_ID      = 2026-041C
CENTER_NAME    = EARTH
REF_FRAME      = TEME
TIME_SYSTEM    = UTC
MEAN_ELEMENT_THEORY = SGP/SGP4

EPOCH          = 2026-03-31T02:06:39.811392
MEAN_MOTION    = 15.75361851
ECCENTRICITY   = .0000824
INCLINATION    = 53.1567
RA_OF_ASC_NODE = 315.5835
ARG_OF_PERICENTER = 82.4453
MEAN_ANOMALY   = 277.6661

EPHEMERIS_TYPE = 0
CLASSIFICATION_TYPE = U
NORAD_CAT_ID   = 68042
ELEMENT_SET_NO = 999
REV_AT_EPOCH   = 459
BSTAR          = .18599E-2
MEAN_MOTION_DOT = .296267E-2
MEAN_MOTION_DDOT = 0

CCSDS_OMM_VERS = 2.0
CREATION_DATE  = 
ORIGINATOR     = 

OBJECT_NAME    = STARLINK-36902
OBJECT_ID      = 2026-041D
CENTER_NAME    = EARTH
REF_FRAME      = TEME
TIME_SYSTEM    = UTC
MEAN_ELEMENT_THEORY = SGP/SGP4

EPOCH          = 2026-03-31T00:00:01.999296
MEAN_MOTION    = 15.75226603
ECCENTRICITY   = .0001134
INCLINATION    = 53.1587
RA_OF_ASC_NODE = 315.4933
ARG_OF_PERICENTER = 45.2195
MEAN_ANOMALY   = 75.3055

EPHEMERIS_TYPE = 0
CLASSIFICATION_TYPE = U
NORAD_CAT_ID   = 68043
ELEMENT_SET_NO = 999
REV_AT_EPOCH   = 580
BSTAR          = -.91117E-4
MEAN_MOTION_DOT = -.14575E-3
MEAN_MOTION_DDOT = 0

CCSDS_OMM_VERS = 2.0
CREATION_DATE  = 
ORIGINATOR     = 

OBJECT_NAME    = STARLINK-36966
OBJECT_ID      = 2026-041E
CENTER_NAME    = EARTH
REF_FRAME      = TEME
TIME_SYSTEM    = UTC
MEAN_ELEMENT_THEORY = SGP/SGP4

EPOCH          = 2026-03-30T03:09:42.002496
MEAN_MOTION    = 15.75294349
ECCENTRICITY   = .00009312
INCLINATION    = 53.1585
RA_OF_ASC_NODE = 320.2848
ARG_OF_PERICENTER = 62.6191
MEAN_ANOMALY   = 297.4924

EPHEMERIS_TYPE = 0
CLASSIFICATION_TYPE = U
NORAD_CAT_ID   = 68044
ELEMENT_SET_NO = 999
REV_AT_EPOCH   = 444
BSTAR          = .13643822E-2
MEAN_MOTION_DOT = .214408E-2
MEAN_MOTION_DDOT = 0

CCSDS_OMM_VERS = 2.0
CREATION_DATE  = 
ORIGINATOR     = 

OBJECT_NAME    = STARLINK-36864
OBJECT_ID      = 2026-041F
CENTER_NAME    = EARTH
REF_FRAME      = TEME
TIME_SYSTEM    = UTC
MEAN_ELEMENT_THEORY = SGP/SGP4

EPOCH          = 2026-03-31T00:28:17.761728
MEAN_MOTION    = 15.75321172
ECCENTRICITY   = .0000928
INCLINATION    = 53.1592
RA_OF_ASC_NODE = 315.8682
ARG_OF_PERICENTER = 93.6800
MEAN_ANOMALY   = 266.4326

EPHEMERIS_TYPE = 0
CLASSIFICATION_TYPE = U
NORAD_CAT_ID   = 68045
ELEMENT_SET_NO = 999
REV_AT_EPOCH   = 458
BSTAR          = .14034E-2
MEAN_MOTION_DOT = .220992E-2
MEAN_MOTION_DDOT = 0

CCSDS_OMM_VERS = 2.0
CREATION_DATE  = 
ORIGINATOR     = 

OBJECT_NAME    = STARLINK-36321
OBJECT_ID      = 2026-041G
CENTER_NAME    = EARTH
REF_FRAME      = TEME
TIME_SYSTEM    = UTC
MEAN_ELEMENT_THEORY = SGP/SGP4

EPOCH          = 2026-03-31T01:20:26.377440
MEAN_MOTION    = 15.75324507
ECCENTRICITY   = .0000333
INCLINATION    = 53.1571
RA_OF_ASC_NODE = 315.3720
ARG_OF_PERICENTER = 106.7496
MEAN_ANOMALY   = 253.3561

EPHEMERIS_TYPE = 0
CLASSIFICATION_TYPE = U
NORAD_CAT_ID   = 68046
ELEMENT_SET_NO = 999
REV_AT_EPOCH   = 459
BSTAR          = .10966E-2
MEAN_MOTION_DOT = .171543E-2
MEAN_MOTION_DDOT = 0

CCSDS_OMM_VERS = 2.0
CREATION_DATE  = 
ORIGINATOR     = 

OBJECT_NAME    = STARLINK-36181
OBJECT_ID      = 2026-041H
CENTER_NAME    = EARTH
REF_FRAME      = TEME
TIME_SYSTEM    = UTC
MEAN_ELEMENT_THEORY = SGP/SGP4

EPOCH          = 2026-03-31T04:00:00.999936
MEAN_MOTION    = 15.75165014
ECCENTRICITY   = .000129
INCLINATION    = 53.1582
RA_OF_ASC_NODE = 314.6115
ARG_OF_PERICENTER = 50.5211
MEAN_ANOMALY   = 321.3816

EPHEMERIS_TYPE = 0
CLASSIFICATION_TYPE = U
NORAD_CAT_ID   = 68047
ELEMENT_SET_NO = 999
REV_AT_EPOCH   = 571
BSTAR          = .61579E-3
MEAN_MOTION_DOT = .94507E-3
MEAN_MOTION_DDOT = 0

CCSDS_OMM_VERS = 2.0
CREATION_DATE  = 
ORIGINATOR     = 

OBJECT_NAME    = STARLINK-36318
OBJECT_ID      = 2026-041J
CENTER_NAME    = EARTH
REF_FRAME      = TEME
TIME_SYSTEM    = UTC
MEAN_ELEMENT_THEORY = SGP/SGP4

EPOCH          = 2026-03-31T04:56:18.688704
MEAN_MOTION    = 15.75335628
ECCENTRICITY   = .0001095
INCLINATION    = 53.1593
RA_OF_ASC_NODE = 314.8943
ARG_OF_PERICENTER = 150.2179
MEAN_ANOMALY   = 209.8904

EPHEMERIS_TYPE = 0
CLASSIFICATION_TYPE = U
NORAD_CAT_ID   = 68048
ELEMENT_SET_NO = 999
REV_AT_EPOCH   = 461
BSTAR          = .13056E-2
MEAN_MOTION_DOT = .205292E-2
MEAN_MOTION_DDOT = 0

CCSDS_OMM_VERS = 2.0
CREATION_DATE  = 
ORIGINATOR     = 

OBJECT_NAME    = STARLINK-36885
OBJECT_ID      = 2026-041K
CENTER_NAME    = EARTH
REF_FRAME      = TEME
TIME_SYSTEM    = UTC
MEAN_ELEMENT_THEORY = SGP/SGP4

EPOCH          = 2026-03-31T00:21:45.651744
MEAN_MOTION    = 15.75323676
ECCENTRICITY   = .0000812
INCLINATION    = 53.1598
RA_OF_ASC_NODE = 315.8371
ARG_OF_PERICENTER = 116.3245
MEAN_ANOMALY   = 243.7859

EPHEMERIS_TYPE = 0
CLASSIFICATION_TYPE = U
NORAD_CAT_ID   = 68049
ELEMENT_SET_NO = 999
REV_AT_EPOCH   = 458
BSTAR          = .13588E-2
MEAN_MOTION_DOT = .213779E-2
MEAN_MOTION_DDOT = 0

CCSDS_OMM_VERS = 2.0
CREATION_DATE  = 
ORIGINATOR     = 

OBJECT_NAME    = STARLINK-36945
OBJECT_ID      = 2026-041L
CENTER_NAME    = EARTH
REF_FRAME      = TEME
TIME_SYSTEM    = UTC
MEAN_ELEMENT_THEORY = SGP/SGP4

EPOCH          = 2026-03-31T02:32:40.471008
MEAN_MOTION    = 15.75339937
ECCENTRICITY   = .0001536
INCLINATION    = 53.1589
RA_OF_ASC_NODE = 314.9666
ARG_OF_PERICENTER = 25.7138
MEAN_ANOMALY   = 334.3958

EPHEMERIS_TYPE = 0
CLASSIFICATION_TYPE = U
NORAD_CAT_ID   = 68050
ELEMENT_SET_NO = 999
REV_AT_EPOCH   = 460
BSTAR          = .15801E-2
MEAN_MOTION_DOT = .249959E-2
MEAN_MOTION_DDOT = 0

